{
  "0": {
    "id": 0,
    "ownerid": 0,
    "business": "Block 15",
    "address": "300 SW Jefferson Ave.",
    "city": "Corvallis",
    "state": "OR",
    "zip": "97333",
    "phone": "541-758-2077",
    "category": "Restaurant",
    "subcategory": "Brewpub",
    "website": "http://block15.com"
  },
  "1": {
    "id": 1,
    "ownerid": 1,
    "business": "Corvallis Brewing Supply",
    "address": "119 SW 4th St.",
    "city": "Corvallis",
    "state": "OR",
    "zip": "97333",
    "phone": "541-758-1674",
    "category": "Shopping",
    "subcategory": "Brewing Supply",
    "website": "http://www.lickspigot.com"
  },
  "2": {
    "id": 2,
    "ownerid": 2,
    "business": "Robnett's Hardware",
    "address": "400 SW 2nd St.",
    "city": "Corvallis",
    "state": "OR",
    "zip": "97333",
    "phone": "541-753-5531",
    "category": "Shopping",
    "subcategory": "Hardware"
  },
  "3": {
    "id": 3,
    "ownerid": 3,
    "business": "First Alternative Co-op North Store",
    "address": "2855 NW Grant Ave.",
    "city": "Corvallis",
    "state": "OR",
    "zip": "97330",
    "phone": "541-452-3115",
    "category": "Shopping",
    "subcategory": "Groceries"
  },
  "4": {
    "id": 4,
    "ownerid": 4,
    "business": "WinCo Foods",
    "address": "2335 NW Kings Blvd.",
    "city": "Corvallis",
    "state": "OR",
    "zip": "97330",
    "phone": "541-753-7002",
    "category": "Shopping",
    "subcategory": "Groceries"
  },
  "5": {
    "id": 5,
    "ownerid": 5,
    "business": "Fred Meyer",
    "address": "777 NW Kings Blvd.",
    "city": "Corvallis",
    "state": "OR",
    "zip": "97330",
    "phone": "541-753-9116",
    "category": "Shopping",
    "subcategory": "Groceries"
  },
  "6": {
    "id": 6,
    "ownerid": 6,
    "business": "Interzone",
    "address": "1563 NW Monroe Ave.",
    "city": "Corvallis",
    "state": "OR",
    "zip": "97330",
    "phone": "541-754-5965",
    "category": "Restaurant",
    "subcategory": "Coffee Shop"
  },
  "7": {
    "id": 7,
    "ownerid": 7,
    "business": "The Beanery Downtown",
    "address": "500 SW 2nd St.",
    "city": "Corvallis",
    "state": "OR",
    "zip": "97333",
    "phone": "541-753-7442",
    "category": "Restaurant",
    "subcategory": "Coffee Shop"
  },
  "8": {
    "id": 8,
    "ownerid": 8,
    "business": "Local Boyz",
    "address": "1425 NW Monroe Ave.",
    "city": "Corvallis",
    "state": "OR",
    "zip": "97330",
    "phone": "541-754-5338",
    "category": "Restaurant",
    "subcategory": "Hawaiian"
  },
  "9": {
    "id": 9,
    "ownerid": 9,
    "business": "Darkside Cinema",
    "address": "215 SW 4th St.",
    "city": "Corvallis",
    "state": "OR",
    "zip": "97333",
    "phone": "541-752-4161",
    "category": "Entertainment",
    "subcategory": "Movie Theater",
    "website": "http://darksidecinema.com"
  },
  "10": {
    "id": 10,
    "ownerid": 10,
    "business": "The Book Bin",
    "address": "215 SW 4th St.",
    "city": "Corvallis",
    "state": "OR",
    "zip": "97333",
    "phone": "541-752-0040",
    "category": "Shopping",
    "subcategory": "Book Store"
  },
  "11": {
    "id": 11,
    "ownerid": 11,
    "business": "Cyclotopia",
    "address": "435 SW 2nd St.",
    "city": "Corvallis",
    "state": "OR",
    "zip": "97333",
    "phone": "541-757-9694",
    "category": "Shopping",
    "subcategory": "Bicycle Shop"
  },
  "12": {
    "id": 12,
    "ownerid": 12,
    "business": "Corvallis Cyclery",
    "address": "344 SW 2nd St.",
    "city": "Corvallis",
    "state": "OR",
    "zip": "97333",
    "phone": "541-752-5952",
    "category": "Shopping",
    "subcategory": "Bicycle Shop"
  },
  "13": {
    "id": 13,
    "ownerid": 13,
    "business": "Oregon Coffee & Tea",
    "address": "215 NW Monroe Ave.",
    "city": "Corvallis",
    "state": "OR",
    "zip": "97333",
    "phone": "541-752-2421",
    "category": "Shopping",
    "subcategory": "Tea House",
    "website": "http://www.oregoncoffeeandtea.com"
  },
  "14": {
    "id": 14,
    "ownerid": 14,
    "business": "Spaeth Lumber",
    "address": "1585 NW 9th St.",
    "city": "Corvallis",
    "state": "OR",
    "zip": "97330",
    "phone": "541-752-1930",
    "category": "Shopping",
    "subcategory": "Hardware"
  },
  "15": {
    "id": 15,
    "ownerid": 15,
    "business": "New Morning Bakery",
    "address": "219 SW 2nd St.",
    "city": "Corvallis",
    "state": "OR",
    "zip": "97333",
    "phone": "541-754-0181",
    "category": "Restaurant",
    "subcategory": "Bakery"
  },
  "16": {
    "id": 16,
    "ownerid": 3,
    "business": "First Alternative Co-op South Store",
    "address": "1007 SE 3rd St.",
    "city": "Corvallis",
    "state": "OR",
    "zip": "97333",
    "phone": "541-753-3115",
    "category": "Shopping",
    "subcategory": "Groceries"
  },
  "17": {
    "id": 17,
    "ownerid": 7,
    "business": "The Beanery Monroe",
    "address": "2541 NW Monroe Ave.",
    "city": "Corvallis",
    "state": "OR",
    "zip": "97330",
    "phone": "541-757-0828",
    "category": "Restaurant",
    "subcategory": "Coffee Shop"
  },
  "18": {
    "id": 18,
    "ownerid": 0,
    "business": "Block 15 Brewery & Tap Room",
    "address": "3415 SW Deschutes St.",
    "city": "Corvallis",
    "state": "OR",
    "zip": "97333",
    "phone": "541-752-2337",
    "category": "Restaurant",
    "subcategory": "Brewpub",
    "website": "http://block15.com"
  }
}
